STARLINK-4546           
1 53422U 22097AL  24147.26699932 -.00000148  00000+0  87744-5 0  9998
2 53422  53.2173 162.9590 0001582 104.2795 255.8373 15.08840522100150
STARLINK-4539           
1 53423U 22097AM  24147.41148540  .00000412  00000+0  43981-4 0  9997
2 53423  53.2155 162.3177 0001078  86.0283 274.0833 15.08835379100153
STARLINK-4532           
1 53424U 22097AN  24147.32588678 -.00000611  00000+0 -20304-4 0  9995
2 53424  53.2167 162.6957 0001269  94.5990 265.5147 15.08837041100169
STARLINK-4531           
1 53425U 22097AP  24147.33692203 -.00000569  00000+0 -17671-4 0  9992
2 53425  53.2163 162.6464 0001333  94.8547 265.2597 15.08841703100135
STARLINK-4558           
1 53426U 22097AQ  24147.30473534 -.00000405  00000+0 -73375-5 0  9997
2 53426  53.2168 152.9453 0001052  96.5407 263.5705 15.08848867100290
STARLINK-4541           
1 53427U 22097AR  24147.32956153 -.00000316  00000+0 -17653-5 0  9991
2 53427  53.2155 162.6727 0001492 106.9786 253.1370 15.08842490100168
STARLINK-4540           
1 53428U 22097AS  24147.29737856  .00012895  00000+0  82836-3 0  9991
2 53428  53.2167 152.9052 0001675  92.8490 267.2694 15.08769884100297
STARLINK-4543           
1 53429U 22097AT  24147.43353812  .00001632  00000+0  12064-3 0  9997
2 53429  53.2161 152.3280 0001313  67.6828 292.4303 15.08836937100317
STARLINK-4538           
1 53430U 22097AU  24147.29370153  .00000197  00000+0  30457-4 0  9992
2 53430  53.2166 152.8791 0001484  85.2274 274.8888 15.08838867100277
STARLINK-4548           
1 53431U 22097AV  24147.31941619 -.00003195  00000+0 -18284-3 0  9993
2 53431  53.2165 152.3497 0001741 142.4540 217.6574 15.08816595100308
STARLINK-4557           
1 53432U 22097AW  24147.33413604  .00000063  00000+0  22087-4 0  9990
2 53432  53.2163 152.4195 0001610  86.5782 273.5394 15.08838068100304
STARLINK-4549           
1 53433U 22097AX  24147.42248011 -.00000010  00000+0  17479-4 0  9991
2 53433  53.2169 152.2594 0001451  98.7666 261.3490 15.08842940100295
STARLINK-4498           
1 53434U 22097AY  24147.33045460  .00000260  00000+0  34438-4 0  9995
2 53434  53.2159 152.3971 0001422 109.6570 250.4576 15.08834520100311
STARLINK-4542           
1 53435U 22097AZ  24147.33781850  .00000642  00000+0  58416-4 0  9992
2 53435  53.2164 152.4420 0001326 109.0895 251.0241 15.08841150100284
STARLINK-4527           
1 53436U 22097BA  24147.39300503  .00000927  00000+0  76298-4 0  9995
2 53436  53.2161 152.0782 0001159  82.8048 277.3076 15.08838285100317
STARLINK-4526           
1 53438U 22097BC  24147.45556814 -.00000859  00000+0 -35914-4 0  9998
2 53438  53.2139 151.7578 0001248 102.4912 257.6219 15.08830040100334
STARLINK-4519           
1 53439U 22097BD  24147.33509785 -.00000375  00000+0 -54820-5 0  9992
2 53439  53.2169 152.4238 0001466  85.2983 274.8176 15.08837104100316
STARLINK-4415           
1 53465U 22099A   24147.33424980  .00005628  00000+0  44208-3 0  9997
2 53465  97.6551 268.4972 0001680  91.8927 268.2489 15.01285700 98114
STARLINK-4398           
1 53466U 22099B   24147.33450777  .00003174  00000+0  25154-3 0  9994
2 53466  97.6543 268.4919 0001732  88.9633 271.1789 15.01266062 98101
STARLINK-4394           
1 53467U 22099C   24147.33055500  .00003048  00000+0  24180-3 0  9998
2 53467  97.6541 268.5453 0001741  91.0968 269.0456 15.01259756 98109
STARLINK-4400           
1 53468U 22099D   24147.33080825  .00001433  00000+0  11610-3 0  9997
2 53468  97.6544 268.4870 0001910  83.0614 277.0827 15.01262798 98103
STARLINK-4399           
1 53469U 22099E   24147.32685948  .00004360  00000+0  34381-3 0  9996
2 53469  97.6549 268.4881 0001480  98.8525 261.2867 15.01264571 98108
STARLINK-4393           
1 53470U 22099F   24147.32872294  .00000451  00000+0  39710-4 0  9999
2 53470  97.6548 268.4867 0001650  87.6483 272.4930 15.01261780 98105
STARLINK-4316           
1 53471U 22099G   24147.32315021  .00002080  00000+0  16642-3 0  9998
2 53471  97.6542 268.4824 0001279  96.0678 264.0692 15.01269764 98102
STARLINK-4447           
1 53472U 22099H   24147.32500477  .00003342  00000+0  26459-3 0  9999
2 53472  97.6545 268.4853 0001104  82.9464 277.1886 15.01268320 98109
STARLINK-4383           
1 53473U 22099J   24147.31942930  .00003317  00000+0  26257-3 0  9991
2 53473  97.6537 268.4783 0000243 106.7224 253.4026 15.01277624 98105
STARLINK-4445           
1 53474U 22099K   24147.31228096  .00002282  00000+0  18216-3 0  9998
2 53474  97.6524 268.4640 0001909 251.1345 108.9672 15.01268679 98104
STARLINK-4389           
1 53475U 22099L   24147.31759461  .00001255  00000+0  10223-3 0  9993
2 53475  97.6539 268.4773 0000567 272.5916  87.5243 15.01266251 98805
STARLINK-4378           
1 53476U 22099M   24147.32129939  .00000588  00000+0  50322-4 0  9999
2 53476  97.6545 268.4827 0000855 117.5344 242.5967 15.01264455 98109
STARLINK-4412           
1 53477U 22099N   24147.31968995  .00000187  00000+0  19157-4 0  9998
2 53477  97.6535 268.4667 0000656 150.3876 209.7386 15.01262308 98807
STARLINK-4433           
1 53478U 22099P   24147.31390418 -.00002186  00000+0 -16572-3 0  9998
2 53478  97.6520 268.4824 0002303 260.7482  99.3481 15.01244521 98106
STARLINK-4436           
1 53479U 22099Q   24147.31202356  .00001905  00000+0  15281-3 0  9994
2 53479  97.6529 268.4623 0002497 250.1484 109.9471 15.01275039 98107
STARLINK-4442           
1 53480U 22099R   24147.31574219  .00000954  00000+0  78849-4 0  9999
2 53480  97.6531 268.4738 0001102 256.4372 103.6730 15.01264734 98105
STARLINK-4302           
1 53481U 22099S   24147.31018844  .00001136  00000+0  92984-4 0  9996
2 53481  97.6528 268.4551 0003301 251.5346 108.5520 15.01268043 98103
STARLINK-4360           
1 53482U 22099T   24147.29907038  .00003707  00000+0  29297-3 0  9998
2 53482  97.6571 268.4735 0003293 258.9951 101.0903 15.01270025 98105
STARLINK-4401           
1 53483U 22099U   24147.29721600  .00002637  00000+0  20982-3 0  9991
2 53483  97.6587 268.4667 0003988 243.6786 116.4028 15.01261480 98108
STARLINK-4426           
1 53484U 22099V   24147.30832892  .00001317  00000+0  10710-3 0  9992
2 53484  97.6535 268.4535 0003981 246.0531 114.0276 15.01266635 98100
STARLINK-4430           
1 53485U 22099W   24147.30277481  .00003610  00000+0  28539-3 0  9996
2 53485  97.6551 268.4482 0004228 251.5759 108.5006 15.01268863 98102
STARLINK-4431           
1 53486U 22099X   24147.30647286  .00001274  00000+0  10379-3 0  9998
2 53486  97.6538 268.4511 0004645 244.8510 115.2232 15.01265664 98106
STARLINK-4432           
1 53487U 22099Y   24147.30672705  .00002138  00000+0  17097-3 0  9997
2 53487  97.6541 268.4344 0002699 249.0350 111.0586 15.01264209 98101
STARLINK-4421           
1 53488U 22099Z   24147.30462259  .00001443  00000+0  11685-3 0  9994
2 53488  97.6544 268.4498 0004630 233.6762 126.4035 15.01269403 98108
STARLINK-4392           
1 53489U 22099AA  24147.30487611  .00009726  00000+0  76051-3 0  9994
2 53489  97.6548 268.4322 0003592 248.6565 111.4275 15.01270148 98100
STARLINK-4387           
1 53490U 22099AB  24147.30092236  .00001995  00000+0  15983-3 0  9998
2 53490  97.6560 268.4470 0003845 249.3881 110.6931 15.01269031 98109
STARLINK-4450           
1 53491U 22099AC  24147.35671433  .00002825  00000+0  22439-3 0  9993
2 53491  97.6566 268.5235 0001445 269.0444  91.0614 15.01272318 98117
STARLINK-4451           
1 53492U 22099AD  24147.56198514 -.00000485  00000+0 -33121-4 0  9994
2 53492  97.6571 268.7168 0003052 245.9283 114.1622 15.01252291 98148
STARLINK-4361           
1 53493U 22099AE  24147.29352159 -.00000094  00000+0 -27512-5 0  9996
2 53493  97.6571 268.4419 0001902 232.0335 128.0718 15.01263622 98108
STARLINK-4340           
1 53494U 22099AF  24147.29746391  .00001335  00000+0  10853-3 0  9997
2 53494  97.6576 268.4437 0003736 246.3553 113.7279 15.01267780 98103
STARLINK-4429           
1 53495U 22099AG  24147.28797121  .00001473  00000+0  11926-3 0  9999
2 53495  97.6557 268.4490 0000912 230.0915 130.0229 15.01263178 98101
STARLINK-4465           
1 53496U 22099AH  24147.29167575  .00008463  00000+0  66225-3 0  9993
2 53496  97.6569 268.4510 0001943 257.9463 102.1543 15.01287077 98102
STARLINK-4453           
1 53497U 22099AJ  24147.35092404  .00011262  00000+0  87971-3 0  9991
2 53497  97.6561 268.5129 0000214 359.3807   0.7417 15.01272701 98113
STARLINK-4439           
1 53498U 22099AK  24147.35116480  .00003522  00000+0  27863-3 0  9997
2 53498  97.6560 268.5242 0001112 251.1752 108.9352 15.01269742 98115
STARLINK-4454           
1 53499U 22099AL  24147.28982314  .00002023  00000+0  16200-3 0  9995
2 53499  97.6565 268.4335 0001422 267.6269  92.4792 15.01264922 98101
STARLINK-4455           
1 53500U 22099AM  24147.35277247  .00002059  00000+0  16479-3 0  9995
2 53500  97.6573 268.5147 0000509 249.1236 110.9934 15.01265625 98115
STARLINK-4434           
1 53501U 22099AN  24147.34352240  .00001192  00000+0  97399-4 0  9990
2 53501  97.6552 268.5103 0001989  89.3664 270.7789 15.01263908 98112
STARLINK-4435           
1 53502U 22099AP  24147.34907304  .00002455  00000+0  19562-3 0  9996
2 53502  97.6557 268.5134 0001678  94.2940 265.8476 15.01265683 98119
STARLINK-4461           
1 53503U 22099AQ  24147.34931779  .00003373  00000+0  26703-3 0  9995
2 53503  97.6555 268.4972 0000532 108.9763 251.1519 15.01266581 98115
STARLINK-4448           
1 53504U 22099AR  24147.34722024  .00001506  00000+0  12182-3 0  9999
2 53504  97.6551 268.5103 0001063  95.9626 264.1719 15.01268375 98111
STARLINK-4446           
1 53505U 22099AS  24147.33982002  .00001348  00000+0  10949-3 0  9996
2 53505  97.6546 268.5029 0001782  91.2358 268.9070 15.01262981 98111
STARLINK-4437           
1 53506U 22099AT  24147.34534869  .00022890  00000+0  17777-2 0  9992
2 53506  97.6549 268.5004 0001272 102.1278 258.0088 15.01328837 98117
